{
  "norad_id": 58393,
  "name": "STARLINK-30939",
  "history": [
    {
      "epoch": "2026-03-28T21:52:37.793856Z",
      "apogee_km": 476.01024628898176,
      "perigee_km": 474.4339736936836,
      "latitude_deg": 2.1949244270872602e-05,
      "longitude_deg": 117.35804278359272,
      "height_km": 475.9610340121816,
      "semi_major_axis_km": 6853.359109991332,
      "eccentricity": 0.000115,
      "inclination_deg": 53.159,
      "raan_deg": 271.8407,
      "arg_perigee_deg": 78.3435,
      "mean_anomaly_deg": 281.7695,
      "mean_motion_rev_day": 15.30197642
    },
    {
      "epoch": "2026-03-28T21:52:37.794720Z",
      "apogee_km": 476.01003770203806,
      "perigee_km": 474.4341763089733,
      "latitude_deg": 2.467472208070776e-05,
      "longitude_deg": 117.3580412043883,
      "height_km": 475.96107256436017,
      "semi_major_axis_km": 6853.359107005505,
      "eccentricity": 0.00011497,
      "inclination_deg": 53.159,
      "raan_deg": 271.8407,
      "arg_perigee_deg": 78.3435,
      "mean_anomaly_deg": 281.7695,
      "mean_motion_rev_day": 15.30197643
    }
  ]
}